[Satellite]
VERSION=1.1
NAME=S-Net K
NICKNAME=S-Net K
TLE1=1 43189U 18014K   20156.74695795  .00000333  00000-0  34175-4 0  9998
TLE2=2 43189  97.6946  64.7660 0009535 266.4192  93.5939 14.96802192126345
STATUS=0
